[{"OBJECT_NAME":"TOMORROW-S1","OBJECT_ID":"2024-149M","EPOCH":"2026-03-09T17:23:34.533600","MEAN_MOTION":15.31198363,"ECCENTRICITY":0.00018188,"INCLINATION":97.3791,"RA_OF_ASC_NODE":149.6044,"ARG_OF_PERICENTER":207.204,"MEAN_ANOMALY":152.9106,"EPHEMERIS_TYPE":0,"CLASSIFICATION_TYPE":"U","NORAD_CAT_ID":60479,"ELEMENT_SET_NO":999,"REV_AT_EPOCH":8686,"BSTAR":0.0002885603,"MEAN_MOTION_DOT":8.62e-5,"MEAN_MOTION_DDOT":0},{"OBJECT_NAME":"STARLINK-35570","OBJECT_ID":"2025-236E","EPOCH":"2026-03-09T07:56:43.050048","MEAN_MOTION":15.30200309,"ECCENTRICITY":0.00012741,"INCLINATION":53.1572,"RA_OF_ASC_NODE":105.2583,"ARG_OF_PERICENTER":88.6862,"MEAN_ANOMALY":271.4284,"EPHEMERIS_TYPE":0,"CLASSIFICATION_TYPE":"U","NORAD_CAT_ID":66090,"ELEMENT_SET_NO":999,"REV_AT_EPOCH":2289,"BSTAR":0.00078500439,"MEAN_MOTION_DOT":0.00022963,"MEAN_MOTION_DDOT":0}]
